[{"OBJECT_NAME":"UNKNOWN","OBJECT_ID":"","EPOCH":"2026-03-07T03:18:42.609888","MEAN_MOTION":13.06608885,"ECCENTRICITY":0.02637621,"INCLINATION":105.839,"RA_OF_ASC_NODE":212.533,"ARG_OF_PERICENTER":328.7653,"MEAN_ANOMALY":29.7988,"EPHEMERIS_TYPE":0,"CLASSIFICATION_TYPE":"U","NORAD_CAT_ID":270344,"ELEMENT_SET_NO":999,"REV_AT_EPOCH":21311,"BSTAR":0.0016368677,"MEAN_MOTION_DOT":5.6e-6,"MEAN_MOTION_DDOT":0},{"OBJECT_NAME":"UNKNOWN","OBJECT_ID":"","EPOCH":"2026-03-05T13:03:02.842560","MEAN_MOTION":12.98386645,"ECCENTRICITY":0.00296474,"INCLINATION":90.238,"RA_OF_ASC_NODE":354.6124,"ARG_OF_PERICENTER":311.1429,"MEAN_ANOMALY":48.7135,"EPHEMERIS_TYPE":0,"CLASSIFICATION_TYPE":"U","NORAD_CAT_ID":270346,"ELEMENT_SET_NO":999,"REV_AT_EPOCH":20491,"BSTAR":0.001425636,"MEAN_MOTION_DOT":4.27e-6,"MEAN_MOTION_DDOT":0},{"OBJECT_NAME":"UNKNOWN","OBJECT_ID":"","EPOCH":"2026-03-14T07:00:54.630144","MEAN_MOTION":13.04819618,"ECCENTRICITY":0.00946316,"INCLINATION":82.6829,"RA_OF_ASC_NODE":270.7457,"ARG_OF_PERICENTER":175.1493,"MEAN_ANOMALY":185.0563,"EPHEMERIS_TYPE":0,"CLASSIFICATION_TYPE":"U","NORAD_CAT_ID":270347,"ELEMENT_SET_NO":999,"REV_AT_EPOCH":13315,"BSTAR":0.0029647146,"MEAN_MOTION_DOT":9.88e-6,"MEAN_MOTION_DDOT":0},{"OBJECT_NAME":"UNKNOWN","OBJECT_ID":"","EPOCH":"2026-03-14T14:57:01.126080","MEAN_MOTION":13.21086734,"ECCENTRICITY":0.0023152,"INCLINATION":82.5487,"RA_OF_ASC_NODE":194.3345,"ARG_OF_PERICENTER":294.9495,"MEAN_ANOMALY":64.9224,"EPHEMERIS_TYPE":0,"CLASSIFICATION_TYPE":"U","NORAD_CAT_ID":270349,"ELEMENT_SET_NO":999,"REV_AT_EPOCH":19334,"BSTAR":0.00039978209,"MEAN_MOTION_DOT":1.76e-6,"MEAN_MOTION_DDOT":0},{"OBJECT_NAME":"UNKNOWN","OBJECT_ID":"","EPOCH":"2026-03-14T04:38:57.723360","MEAN_MOTION":2.01215836,"ECCENTRICITY":0.74905658,"INCLINATION":62.154,"RA_OF_ASC_NODE":96.0596,"ARG_OF_PERICENTER":49.2661,"MEAN_ANOMALY":354.9582,"EPHEMERIS_TYPE":0,"CLASSIFICATION_TYPE":"U","NORAD_CAT_ID":270365,"ELEMENT_SET_NO":999,"REV_AT_EPOCH":1920,"BSTAR":0.0050617386,"MEAN_MOTION_DOT":0.00010911,"MEAN_MOTION_DDOT":0},{"OBJECT_NAME":"UNKNOWN","OBJECT_ID":"","EPOCH":"2026-03-06T15:45:38.256192","MEAN_MOTION":13.15574603,"ECCENTRICITY":0.0118709,"INCLINATION":102.986,"RA_OF_ASC_NODE":221.2068,"ARG_OF_PERICENTER":157.0368,"MEAN_ANOMALY":203.6101,"EPHEMERIS_TYPE":0,"CLASSIFICATION_TYPE":"U","NORAD_CAT_ID":270376,"ELEMENT_SET_NO":999,"REV_AT_EPOCH":15366,"BSTAR":0.019120721,"MEAN_MOTION_DOT":7.418e-5,"MEAN_MOTION_DDOT":0},{"OBJECT_NAME":"UNKNOWN","OBJECT_ID":"","EPOCH":"2026-03-14T06:47:48.240672","MEAN_MOTION":13.20274875,"ECCENTRICITY":0.0421251,"INCLINATION":82.5426,"RA_OF_ASC_NODE":272.5983,"ARG_OF_PERICENTER":23.7167,"MEAN_ANOMALY":338.2759,"EPHEMERIS_TYPE":0,"CLASSIFICATION_TYPE":"U","NORAD_CAT_ID":270378,"ELEMENT_SET_NO":999,"REV_AT_EPOCH":15354,"BSTAR":0.0010732812,"MEAN_MOTION_DOT":7.02e-6,"MEAN_MOTION_DDOT":0},{"OBJECT_NAME":"UNKNOWN","OBJECT_ID":"","EPOCH":"2026-03-13T21:20:04.672608","MEAN_MOTION":14.19811313,"ECCENTRICITY":0.0008774,"INCLINATION":81.2094,"RA_OF_ASC_NODE":22.1627,"ARG_OF_PERICENTER":236.9019,"MEAN_ANOMALY":123.1316,"EPHEMERIS_TYPE":0,"CLASSIFICATION_TYPE":"U","NORAD_CAT_ID":270387,"ELEMENT_SET_NO":999,"REV_AT_EPOCH":14652,"BSTAR":0.0010062634,"MEAN_MOTION_DOT":2.144e-5,"MEAN_MOTION_DDOT":0},{"OBJECT_NAME":"UNKNOWN","OBJECT_ID":"","EPOCH":"2026-03-14T14:14:46.442112","MEAN_MOTION":14.03208765,"ECCENTRICITY":0.01268461,"INCLINATION":89.1808,"RA_OF_ASC_NODE":299.3534,"ARG_OF_PERICENTER":163.9264,"MEAN_ANOMALY":196.6,"EPHEMERIS_TYPE":0,"CLASSIFICATION_TYPE":"U","NORAD_CAT_ID":270408,"ELEMENT_SET_NO":999,"REV_AT_EPOCH":3237,"BSTAR":0.00015351739,"MEAN_MOTION_DOT":2.71e-6,"MEAN_MOTION_DDOT":0},{"OBJECT_NAME":"UNKNOWN","OBJECT_ID":"","EPOCH":"2026-03-14T11:09:04.387104","MEAN_MOTION":14.71243758,"ECCENTRICITY":0.01431436,"INCLINATION":88.7421,"RA_OF_ASC_NODE":261.3583,"ARG_OF_PERICENTER":153.243,"MEAN_ANOMALY":207.6268,"EPHEMERIS_TYPE":0,"CLASSIFICATION_TYPE":"U","NORAD_CAT_ID":270413,"ELEMENT_SET_NO":999,"REV_AT_EPOCH":8536,"BSTAR":0.00085794795,"MEAN_MOTION_DOT":6.237e-5,"MEAN_MOTION_DDOT":0},{"OBJECT_NAME":"UNKNOWN","OBJECT_ID":"","EPOCH":"2026-03-12T10:51:33.986880","MEAN_MOTION":14.68268649,"ECCENTRICITY":0.01272386,"INCLINATION":88.4808,"RA_OF_ASC_NODE":243.5742,"ARG_OF_PERICENTER":143.4246,"MEAN_ANOMALY":217.5745,"EPHEMERIS_TYPE":0,"CLASSIFICATION_TYPE":"U","NORAD_CAT_ID":270425,"ELEMENT_SET_NO":999,"REV_AT_EPOCH":8322,"BSTAR":0.0021322125,"MEAN_MOTION_DOT":0.00013937,"MEAN_MOTION_DDOT":0},{"OBJECT_NAME":"UNKNOWN","OBJECT_ID":"","EPOCH":"2026-03-13T18:31:46.938720","MEAN_MOTION":14.34546327,"ECCENTRICITY":0.00155828,"INCLINATION":87.8687,"RA_OF_ASC_NODE":205.409,"ARG_OF_PERICENTER":160.4652,"MEAN_ANOMALY":199.7146,"EPHEMERIS_TYPE":0,"CLASSIFICATION_TYPE":"U","NORAD_CAT_ID":270429,"ELEMENT_SET_NO":999,"REV_AT_EPOCH":8172,"BSTAR":0.00091187556,"MEAN_MOTION_DOT":2.593e-5,"MEAN_MOTION_DDOT":0},{"OBJECT_NAME":"UNKNOWN","OBJECT_ID":"","EPOCH":"2026-03-14T08:00:17.227008","MEAN_MOTION":14.13437709,"ECCENTRICITY":0.02190948,"INCLINATION":88.9177,"RA_OF_ASC_NODE":280.9563,"ARG_OF_PERICENTER":85.1534,"MEAN_ANOMALY":277.463,"EPHEMERIS_TYPE":0,"CLASSIFICATION_TYPE":"U","NORAD_CAT_ID":270438,"ELEMENT_SET_NO":999,"REV_AT_EPOCH":8013,"BSTAR":0.00061311398,"MEAN_MOTION_DOT":1.466e-5,"MEAN_MOTION_DDOT":0}]
